COSMO-SKYMED 4          
1 37216U 10060A   24363.81522595  .00001599  00000+0  20749-3 0  9999
2 37216  97.8862 184.1608 0001464  86.5964 273.5417 14.82143891765325
O/OREOS (USA 219)       
1 37224U 10062C   24363.56708262  .00005394  00000+0  56643-3 0  9998
2 37224  71.9702 210.3724 0014901 358.2124   1.8988 14.89808401 36753
ELEKTRO-L 1 (GOMS 2)    
1 37344U 11001A   24362.88567681 -.00000050  00000+0  00000+0 0  9994
2 37344   8.4598  59.7859 0003646  21.8299 326.7200  1.00252656 51104
RESOURCESAT-2           
1 37387U 11015A   24363.89899617  .00000475  00000+0  23550-3 0  9994
2 37387  98.5543  63.9977 0003249 270.5209  89.5597 14.21703262710658
YOUTHSAT                
1 37388U 11015B   24363.45917535  .00000672  00000+0  30281-3 0  9995
2 37388  98.3114 352.7096 0015641 113.6695  39.7447 14.25211755711317
APRIZESAT 6             
1 37793U 11044F   24363.45187413  .00002773  00000+0  40965-3 0  9995
2 37793  98.2784 251.4281 0044444 359.7147 173.7202 14.75450227718104
JUGNU                   
1 37839U 11058B   24363.56796562  .00000881  00000+0  32132-3 0  9999
2 37839  19.9625 321.8284 0018460 281.9195 234.9024 14.13464431683255
SRMSAT                  
1 37841U 11058D   24363.48675972  .00000754  00000+0  26657-3 0  9998
2 37841  19.9727  61.4136 0011960  71.1359 317.0184 14.11321419682045
SUOMI NPP               
1 37849U 11061A   24363.86241680  .00000298  00000+0  16238-3 0  9994
2 37849  98.7427 299.0700 0002148  66.8229 293.3173 14.19526178682485
YAOGAN-12               
1 37875U 11066B   24363.86480217  .00017073  00000+0  71273-3 0  9998
2 37875  97.1941  55.7290 0004744 327.0992  32.9950 15.23703208731068
ZIYUAN 3-1 (ZY 3-1)     
1 38046U 12001A   24363.79201327  .00026332  00000+0  56551-3 0  9994
2 38046  97.2170  62.7355 0004919 144.9621 215.1952 15.44658550720835
BEIDOU-2 M4             
1 38251U 12018B   24363.23992795 -.00000078  00000+0  00000+0 0  9999
2 38251  56.1059 322.1278 0015739 274.3532  85.4584  1.86232135 85966
ARIRANG-3 (KOMPSAT-3)   
1 38338U 12025B   24363.83200330  .00001864  00000+0  36805-3 0  9995
2 38338  98.2875 310.6494 0010080 358.8756   1.2421 14.63601294673208
HORYU-2                 
1 38340U 12025D   24363.28365697  .00008592  00000+0  10054-2 0  9997
2 38340  98.1700 107.4217 0010075 127.3506 232.8627 14.85282231669001
CSSWE                   
1 38761U 12048D   24363.47924606  .00026779  00000+0  11519-2 0  9995
2 38761  64.6691  68.3124 0121250 316.8998  42.2678 15.16075734 34452
CP5                     
1 38763U 12048F   24363.38825412  .00017981  00000+0  89841-3 0  9991
2 38763  64.6589 100.4646 0131160 323.1942  36.0226 15.10283084 35362
METOP-B                 
1 38771U 12049A   24363.79566662  .00000400  00000+0  20287-3 0  9992
2 38771  98.6039  56.3947 0001846 102.8084 257.3300 14.21394633637191
SJ-9A                   
1 38860U 12056A   24363.82428024  .00003470  00000+0  42682-3 0  9995
2 38860  97.6085 347.0158 0026000 216.2097 143.7359 14.83376245659369
COSMOS 2484             
1 39059U 13001C   24363.53595220  .00000059  00000+0  35154-3 0  9994
2 39059  82.5008 194.9528 0026758 121.5324 238.8374 12.42913081542013
SARAL                   
1 39086U 13009A   24363.60468938  .00000430  00000+0  17443-3 0  9999
2 39086  98.5483 186.0881 0002919  77.9000 282.2511 14.32618268618918
AAUSAT 3                
1 39087U 13009B   24363.78981350  .00002335  00000+0  77489-3 0  9999
2 39087  98.3626 189.3117 0012203  23.9693 336.2061 14.38670014620477
STRAND-1                
1 39090U 13009E   24363.49908785  .00001086  00000+0  38408-3 0  9992
2 39090  98.3766 186.5078 0009444  37.7154 322.4693 14.36543411620138
BRITE-AUSTRIA           
1 39091U 13009F   24363.45134446  .00000702  00000+0  25551-3 0  9993
2 39091  98.3816 185.7338 0011063  44.4942 315.7131 14.36124977620140
UNIBRITE                
1 39092U 13009G   24363.48543477  .00000705  00000+0  25730-3 0  9997
2 39092  98.3856 185.7417 0009937  41.2101 318.9833 14.35997109620094
AIST-2 (RS-43)          
1 39133U 13015D   24363.82688504  .00010905  00000+0  54554-3 0  9998
2 39133  64.8691 197.0226 0025010 299.0631  60.7990 15.17539705642859
GAOFEN-1                
1 39150U 13018A   24363.83040720  .00002276  00000+0  33326-3 0  9999
2 39150  97.9707  73.9099 0018575 189.5572 170.5287 14.76498855629283
NEE-01 PEGASO           
1 39151U 13018B   24363.72598204  .00007502  00000+0  80526-3 0  9994
2 39151  98.0535 123.3927 0014893 122.5630 237.7027 14.88812653630892
TURKSAT-3USAT           
1 39152U 13018C   24363.24214904  .00008877  00000+0  90821-3 0  9999
2 39152  97.8199  86.6826 0014731  83.3676 276.9218 14.90685373631078
CUBEBUG-1 (CAPITAN BETO)
1 39153U 13018D   24363.59921969  .00009750  00000+0  98454-3 0  9995
2 39153  98.0963 133.2683 0014309 114.0120 246.2596 14.91201007631144
PROBA-V                 
1 39159U 13021A   24363.72957175  .00000295  00000+0  14785-3 0  9998
2 39159  98.3123 359.4636 0003013 258.9532 101.1309 14.23405409604931
ESTCUBE 1               
1 39161U 13021C   24363.65558476  .00005295  00000+0  73203-3 0  9999
2 39161  97.8062  64.2114 0007839 327.0893  32.9829 14.78466483625840
ARIRANG-5 (KOMPSAT-5)   
1 39227U 13042A   24363.77369772  .00004567  00000+0  33016-3 0  9996
2 39227  97.6158 186.9558 0003845 133.4328 226.7218 15.04531981623418
GONETS-M 5              
1 39249U 13048A   24363.80360733  .00000035  00000+0  18252-3 0  9999
2 39249  82.4831 317.1193 0015646 304.0600  55.8994 12.42855720512537
GONETS-M 7              
1 39251U 13048C   24363.53757069  .00000036  00000+0  19227-3 0  9998
2 39251  82.4898 319.9294 0016458 305.6912  54.2636 12.42888496512295
FENGYUN 3C              
1 39260U 13052A   24363.86998545  .00000342  00000+0  19251-3 0  9992
2 39260  98.4408 353.2873 0012012 122.1789 238.0553 14.16374189582883
CASSIOPE                
1 39265U 13055A   24363.55199404  .00059972  00000+0  10788-2 0  9991
2 39265  80.9474 337.0898 0440460  17.1930 344.3665 14.85067188587083
APRIZESAT 7             
1 39416U 13066A   24363.76730242  .00004207  00000+0  44648-3 0  9999
2 39416  97.6990 317.0270 0037285 182.6253 177.4774 14.89065287601506
ZACUBE-1 (TSHEPISOSAT)  
1 39417U 13066B   24363.44018204  .00010615  00000+0  99005-3 0  9999
2 39417  97.7603 315.8804 0044819 235.3969 124.3019 14.93633894600534
APRIZESAT 8             
1 39425U 13066K   24363.35548112  .00003493  00000+0  40243-3 0  9990
2 39425  97.7559 310.3069 0046244 247.7469 111.8838 14.85581029600052
CINEMA-3 (KHUSAT-2)     
1 39426U 13066L   24363.72436308  .00003793  00000+0  52465-3 0  9997
2 39426  97.8476 279.6016 0095187 143.7722 216.9984 14.75520263595670
TRITON-1                
1 39427U 13066M   24363.81243258  .00006044  00000+0  79616-3 0  9997
2 39427  97.8418 275.8739 0097507 173.1110 187.1468 14.77174622595103
DELFI-N3XT              
1 39428U 13066N   24363.72906085  .00013187  00000+0  14692-2 0  9990
2 39428  97.8387 277.6582 0090834 174.2300 185.9983 14.84199072595061
GOMX-1                  
1 39430U 13066Q   24363.75164829  .00006247  00000+0  99544-3 0  9997
2 39430  97.7032 226.3078 0135536 353.6876   6.2616 14.66289202591532
BRITE-PL1 (LEM)         
1 39431U 13066R   24363.78644816  .00003246  00000+0  66949-3 0  9999
2 39431  97.7269 145.8607 0193442 236.3393 121.9223 14.49958453586501
ICUBE-1                 
1 39432U 13066S   24363.46248092  .00020255  00000+0  12775-2 0  9997
2 39432  97.5206 339.9372 0025374  35.0283 325.2608 15.08873242604376
HUMSAT-D                
1 39433U 13066T   24363.49608873  .00041145  00000+0  18144-2 0  9995
2 39433  97.4983 352.1467 0014295 345.6895  14.3934 15.21573257605343
VELOX-PII               
1 39438U 13066Y   24363.60551303  .00010120  00000+0  10820-2 0  9990
2 39438  97.8118 307.5538 0057609 314.5423  45.1096 14.87720690599173
FIRST-MOVE              
1 39439U 13066Z   24363.37104800  .00038080  00000+0  20902-2 0  9998
2 39439  97.7314 327.2240 0031968 190.9508 169.1031 15.13588169600105
CUBEBUG-2 (LO-74)       
1 39440U 13066AA  24363.42062285  .00011630  00000+0  12463-2 0  9991
2 39440  97.8334 303.5866 0065649 359.2895   0.8216 14.87224125598362
NEE-02 KRYSAOR          
1 39441U 13066AB  24363.37253338  .00007673  00000+0  91559-3 0  9993
2 39441  97.8418 298.4849 0072070  24.6984 335.7652 14.82665130596684
FUNCUBE-1 (AO-73)       
1 39444U 13066AE  24363.61353320  .00014170  00000+0  11839-2 0  9997
2 39444  97.7428 319.8562 0042122 210.9918 148.8818 14.97933037599746
HINCUBE                 
1 39445U 13066AF  24363.38608797  .00013421  00000+0  11373-2 0  9994
2 39445  97.7468 319.1831 0041676 215.0408 144.8070 14.97416399599031
UWE-3                   
1 39446U 13066AG  24363.66614406  .00011845  00000+0  11944-2 0  9992
2 39446  97.8047 310.0085 0054657 300.1004  59.4801 14.90144708598215
SMDC ONE 2.4            
1 39469U 13072H   24363.55452731  .00033853  00000+0  17882-2 0  9993
2 39469 120.4963 110.2071 0194643 156.7835 204.2160 15.00437148 36942
CP8 (IPEX)              
1 39471U 13072K   24363.25694085  .00024394  00000+0  14501-2 0  9998
2 39471 120.4712  80.8376 0207626 150.5356 210.7588 14.94955740 34717
COSMOS 2488             
1 39483U 13076A   24363.56743886  .00000030  00000+0  14359-3 0  9996
2 39483  82.4841 142.4960 0019591 180.5636 179.5425 12.42898908499350
COSMOS 2489             
1 39484U 13076B   24363.54164231  .00000043  00000+0  24116-3 0  9992
2 39484  82.4878 143.7289 0021641 182.0672 178.0322 12.42893735499404
COSMOS 2490             
1 39485U 13076C   24363.51145858  .00000029  00000+0  14162-3 0  9998
2 39485  82.4824 142.0465 0021337 196.7984 163.2391 12.42906730499338
AIST-1 (RS-41)          
1 39492U 13078C   24363.74192812  .00004669  00000+0  44196-3 0  9999
2 39492  82.4172  68.6133 0016300 268.9714  90.9638 14.93351549597580
